#dP2018  5 26  0  0  0.00000000      96 __u+U IGS08 FIT  IAC
## 2002 518400.00000000   900.00000000 58264 0.0000000000000
+   86   C02C03C04C05C06C07C08C09C10C11C12C13C14E01E02E03E04
+        E05E07E08E09E11E12E14E18E19E24E26E30G01G02G03G05G06
+        G07G08G09G10G11G12G13G14G15G16G17G18G19G20G21G22G23
+        G24G25G26G27G28G29G30G31G32J01J02J03R01R02R03R04R05
+        R07R08R09R10R11R13R14R15R16R17R18R19R20R21R22R23R24
+        R26  0  0  0  0  0  0  0  0  0  0  0  0  0  0  0  0
++        12 12 14 12  8  8  8  8  8  9  8  8  8  7  7  7  7
++         7  7  7  7  7  7  7  8  7  7  7  7  3  3  3  3  3
++         3  3  3  3  3  3  3  3  3  3  3  3  3  3  3  3  3
++         3  3  3  3  3  3  3  3  3  0 11 11  5  5  5  5  6
++         5  5  5  5  5  5  5  5  5  5  5  5  5  5  5  5  7
++         8  0  0  0  0  0  0  0  0  0  0  0  0  0  0  0  0
%c M  cc GPS ccc cccc cccc cccc cccc ccccc ccccc ccccc ccccc
%c cc cc ccc ccc cccc cccc cccc cccc ccccc ccccc ccccc ccccc
%f  1.2500000  1.025000000  0.00000000000  0.000000000000000
%f  0.0000000  0.000000000  0.00000000000  0.000000000000000
%i    0    0    0    0      0      0      0      0         0
%i    0    0    0    0      0      0      0      0         0
/* INFORMATION & ANALYSIS CENTER (IAC)            FINAL DATA
/* S/V CLOCKS ARE ALIGNED TO GPS & GLONASS TIME RESPECTIVELY
/* USING THE BROADCAST EPHEMERIS                            
/* PCV:IGS14_2000 OL/AL:FES2004  NONE     YN ORB:CoN CLK:CoN
*  2018 05 26  1  0  0.00000000
PC02   4373.685738  41916.166017  -1309.090546    409.613753
PC03 -14796.260678  39438.284489   -113.734304   -276.756399
PC04 -39626.141151  14414.794673     95.713008   -246.199707
PC05  21938.833348  35983.886658   -983.826096    404.337419
PC06 -17909.695541  37765.495295  -3723.090783     30.848690
PC07  -8739.950361  26685.844553  31669.097565    135.045231
PC08 -23962.474257  21107.353288 -27586.355961    357.800571
PC09  -8473.404653  39481.060570  11714.452692    -96.318405
PC10   6560.065434  34473.613831  23739.097803   -259.820713
PC11 -20828.381820  18204.035748  -3897.164994   -522.944454
PC12 -23448.418195   5560.327681  14197.850154    455.164498
PC13  -8725.707391  24313.473120 -33354.316028   -347.601421
PC14 -11047.996750  17607.338486 -18529.686241    361.347121
PE01  18573.544022  22503.458673   4998.720751   -353.253448
PE02 -18580.309249 -22499.016520  -4988.200516     14.510947
PE03  -7744.560583 -22013.126107 -18194.566629    -36.222309
PE04  17090.512020   2300.877148  24070.728318    -41.771338
PE05   6177.217140 -28902.902256  -1633.459446    258.339388
PE07 -16425.903495  18872.179748 -15807.222880     26.628899
PE08 -16960.062301  -2109.439634 -24156.292763   6577.308566
PE09  16183.583523 -18981.861991  15941.817443   6781.622757
PE11  25221.466062 -13157.361939   8225.140601    351.719906
PE12  27496.699489   -381.891784 -10981.647494   4238.353863
PE14   2282.460457  22847.756649 -20631.805598   6577.182444
PE18   9355.827143 -22199.755379  10062.931463   6181.147191
PE19   6525.197563  23296.335522  17062.288951     22.598619
PE24  15222.578577  -7408.114397 -24293.943446   6687.377873
PE26  -8577.361137  17930.561542 -21930.150044   5896.070047
PE30 -23917.844608 -10745.230534  13724.802179   5810.891998
PG01  17023.188497  13424.149463 -15695.347670    -50.768742
PG02   6611.632925 -14851.313853  21532.180275    104.722441
PG03  13315.070632  22224.070909   5983.881142     77.334127
PG05    135.233022 -23163.975213  12701.468077     -7.281858
PG06  20633.012396  -7432.982202  15034.174801    400.930142
PG07  26090.935642   5850.163888   2195.210507    185.887046
PG08    130.901544  19705.445835 -17686.224276   -102.535824
PG09  16972.371666   1654.378801  20336.113665    514.252299
PG10 -14384.456086   4946.805400 -21730.802351    186.304921
PG11  12442.366172  12885.525603 -20132.636473   -735.527841
PG12  -9893.809086 -24591.479810   2700.751943    331.464605
PG13   9467.579313 -21512.170728 -12480.524029    -94.137234
PG14 -17956.131248  19434.664196     14.394616    -97.090292
PG15  -3589.064447 -19124.066089 -18125.685181   -353.683241
PG16  -2274.836069  22589.798748  13266.206890     23.624300
PG17  20366.999167 -14044.318592  -9104.959844    -94.543680
PG18   8250.731384  15534.309158 -20410.226250     13.633464
PG19  19563.349301 -17983.462578  -2424.867268   -433.529562
PG20 -18858.560797 -10155.306466 -15904.925886    509.023928
PG21 -26418.271282  -2438.559319   -149.223560   -390.220744
PG22   9583.543619  24646.257536  -2321.274255   -404.197330
PG23   8843.748241  13698.500989  21192.364349   -216.669868
PG24 -13830.776248 -14415.583290 -17756.437443    -50.242749
PG25 -16429.205059 -15172.301262  14325.530629   -590.827526
PG26  -8698.196364  15393.627069  19767.325373   -137.068786
PG27 -10814.858584  22712.272095  -8174.076451    368.143882
PG28  14677.340013   -667.017470 -21504.824441    718.316711
PG29 -14755.222967  -4939.462960  21500.435213    443.722542
PG30  25500.670666   -600.371539  -7696.539475     70.006679
PG31 -19786.324097   7894.754717  16157.802739    119.099022
PG32 -20031.515703  14043.954618 -10196.664922   -504.320183
PJ01 -19188.774116  26621.322362 -21833.458327 999999.999999
PJ02 -26908.999640  20679.929748  29686.870579    -21.749821
PJ03 -32632.153933  25951.441243  11228.204573    -14.529618
PR01 -11078.996591   6380.370940 -22066.639025     26.737426
PR02  -6008.235330  23041.421616  -9037.474354    311.569265
PR03   2368.763535  23905.635962   8564.733882    133.195836
PR04   9459.979804  10365.769372  21319.707639    262.311611
PR05  10898.926520  -8443.032007  21458.084609    -14.196512
PR07  -2481.292684 -23805.395557  -8829.341850    -38.469161
PR08  -9230.477939 -11080.684745 -20982.722514     23.016610
PR09   3511.102706 -10940.486395 -22758.433565     26.362386
PR10 -12555.264548 -16843.415345 -14431.452313     25.023547
PR11 -21605.054366 -13167.755985   3052.155082    -29.695065
PR13  -2975.566056  10887.222254  22853.549341    -10.767938
PR14  12462.913236  16925.962994  14470.463254     27.578312
PR15  20627.927165  14884.818888    991.170210    -10.748094
PR16  18187.578602   1914.821297 -17754.828711     93.399780
PR17      8.205459  11605.427627 -22711.059901    135.199849
PR18  16107.609459   2259.394768 -19662.103554    196.911908
PR19  23600.309867  -7942.517565  -5547.997318    -53.297190
PR20  16841.738212 -14068.477963  13056.908550   -339.281998
PR21   -374.724590 -11385.876044  22819.871450     14.844799
PR22 -17395.558500  -1087.147822  18567.465324    -45.903359
PR23 -23310.634017  10207.953744   1680.440694    155.822511
PR24 -15821.060977  14444.238691 -13855.757666   -166.749352
PR26  17028.242454 -14344.727158  12440.077206     21.988038
EOF
